[{"OBJECT_NAME":"LYNK TOWER 5","OBJECT_ID":"2024-043Z","EPOCH":"2026-03-09T22:11:51.175104","MEAN_MOTION":15.29454506,"ECCENTRICITY":0.00104056,"INCLINATION":97.5458,"RA_OF_ASC_NODE":204.7305,"ARG_OF_PERICENTER":234.6422,"MEAN_ANOMALY":125.3846,"EPHEMERIS_TYPE":0,"CLASSIFICATION_TYPE":"U","NORAD_CAT_ID":59121,"ELEMENT_SET_NO":999,"REV_AT_EPOCH":11186,"BSTAR":0.00031901545,"MEAN_MOTION_DOT":9.048e-5,"MEAN_MOTION_DDOT":0},{"OBJECT_NAME":"STARLINK-35634","OBJECT_ID":"2025-240AD","EPOCH":"2026-03-09T09:09:18.779904","MEAN_MOTION":15.30195218,"ECCENTRICITY":0.00014209,"INCLINATION":53.1608,"RA_OF_ASC_NODE":64.0604,"ARG_OF_PERICENTER":67.6552,"MEAN_ANOMALY":292.4599,"EPHEMERIS_TYPE":0,"CLASSIFICATION_TYPE":"U","NORAD_CAT_ID":66173,"ELEMENT_SET_NO":999,"REV_AT_EPOCH":2194,"BSTAR":0.0011352037,"MEAN_MOTION_DOT":0.00033409,"MEAN_MOTION_DDOT":0}]
